[{"OBJECT_NAME":"SCD 1","OBJECT_ID":"1993-009B","EPOCH":"2026-04-26T20:09:20.232000","MEAN_MOTION":14.46096983,"ECCENTRICITY":0.0041765,"INCLINATION":24.9681,"RA_OF_ASC_NODE":164.6093,"ARG_OF_PERICENTER":314.9091,"MEAN_ANOMALY":206.206,"EPHEMERIS_TYPE":0,"CLASSIFICATION_TYPE":"U","NORAD_CAT_ID":22490,"ELEMENT_SET_NO":999,"REV_AT_EPOCH":75367,"BSTAR":7.0288e-5,"MEAN_MOTION_DOT":4.43e-6,"MEAN_MOTION_DDOT":0},{"OBJECT_NAME":"TECHSAT 1B (GO-32)","OBJECT_ID":"1998-043D","EPOCH":"2026-04-26T20:34:10.253568","MEAN_MOTION":14.24417863,"ECCENTRICITY":0.0001758,"INCLINATION":99.0062,"RA_OF_ASC_NODE":108.3254,"ARG_OF_PERICENTER":42.3066,"MEAN_ANOMALY":317.8248,"EPHEMERIS_TYPE":0,"CLASSIFICATION_TYPE":"U","NORAD_CAT_ID":25397,"ELEMENT_SET_NO":999,"REV_AT_EPOCH":44402,"BSTAR":4.8141e-5,"MEAN_MOTION_DOT":6.5e-7,"MEAN_MOTION_DDOT":0},{"OBJECT_NAME":"SCD 2","OBJECT_ID":"1998-060A","EPOCH":"2026-04-26T20:50:12.118848","MEAN_MOTION":14.45505771,"ECCENTRICITY":0.0016541,"INCLINATION":24.9965,"RA_OF_ASC_NODE":28.6361,"ARG_OF_PERICENTER":301.1167,"MEAN_ANOMALY":113.4278,"EPHEMERIS_TYPE":0,"CLASSIFICATION_TYPE":"U","NORAD_CAT_ID":25504,"ELEMENT_SET_NO":999,"REV_AT_EPOCH":45289,"BSTAR":6.494e-5,"MEAN_MOTION_DOT":4.15e-6,"MEAN_MOTION_DDOT":0},{"OBJECT_NAME":"DLR-TUBSAT","OBJECT_ID":"1999-029B","EPOCH":"2026-04-26T19:58:15.542112","MEAN_MOTION":14.52412935,"ECCENTRICITY":0.0014878,"INCLINATION":98.6692,"RA_OF_ASC_NODE":110.6501,"ARG_OF_PERICENTER":142.646,"MEAN_ANOMALY":217.5772,"EPHEMERIS_TYPE":0,"CLASSIFICATION_TYPE":"U","NORAD_CAT_ID":25757,"ELEMENT_SET_NO":999,"REV_AT_EPOCH":42579,"BSTAR":3.8522e-5,"MEAN_MOTION_DOT":1.09e-6,"MEAN_MOTION_DDOT":0},{"OBJECT_NAME":"TERRA","OBJECT_ID":"1999-068A","EPOCH":"2026-04-26T21:10:49.384128","MEAN_MOTION":14.61060954,"ECCENTRICITY":0.0003157,"INCLINATION":97.9501,"RA_OF_ASC_NODE":168.4524,"ARG_OF_PERICENTER":54.7148,"MEAN_ANOMALY":122.519,"EPHEMERIS_TYPE":0,"CLASSIFICATION_TYPE":"U","NORAD_CAT_ID":25994,"ELEMENT_SET_NO":999,"REV_AT_EPOCH":40211,"BSTAR":8.6257e-5,"MEAN_MOTION_DOT":3.79e-6,"MEAN_MOTION_DDOT":0},{"OBJECT_NAME":"MAROC-TUBSAT","OBJECT_ID":"2001-056D","EPOCH":"2026-04-26T17:40:20.924256","MEAN_MOTION":13.70260234,"ECCENTRICITY":0.0019038,"INCLINATION":99.8061,"RA_OF_ASC_NODE":292.6294,"ARG_OF_PERICENTER":274.9259,"MEAN_ANOMALY":106.8928,"EPHEMERIS_TYPE":0,"CLASSIFICATION_TYPE":"U","NORAD_CAT_ID":27004,"ELEMENT_SET_NO":999,"REV_AT_EPOCH":21914,"BSTAR":4.1098e-5,"MEAN_MOTION_DOT":-1.1e-7,"MEAN_MOTION_DDOT":0},{"OBJECT_NAME":"AQUA","OBJECT_ID":"2002-022A","EPOCH":"2026-04-26T20:37:26.315904","MEAN_MOTION":14.6207591,"ECCENTRICITY":0.0002042,"INCLINATION":98.4244,"RA_OF_ASC_NODE":85.131,"ARG_OF_PERICENTER":95.0121,"MEAN_ANOMALY":295.2207,"EPHEMERIS_TYPE":0,"CLASSIFICATION_TYPE":"U","NORAD_CAT_ID":27424,"ELEMENT_SET_NO":999,"REV_AT_EPOCH":27577,"BSTAR":0.00019419,"MEAN_MOTION_DOT":9.26e-6,"MEAN_MOTION_DDOT":0},{"OBJECT_NAME":"SHIYAN-1 (SY-1)","OBJECT_ID":"2004-012A","EPOCH":"2026-04-26T18:00:53.192160","MEAN_MOTION":15.32415145,"ECCENTRICITY":0.0005847,"INCLINATION":97.8707,"RA_OF_ASC_NODE":191.5316,"ARG_OF_PERICENTER":187.8278,"MEAN_ANOMALY":172.2872,"EPHEMERIS_TYPE":0,"CLASSIFICATION_TYPE":"U","NORAD_CAT_ID":28220,"ELEMENT_SET_NO":999,"REV_AT_EPOCH":20321,"BSTAR":0.00056334,"MEAN_MOTION_DOT":0.00017576,"MEAN_MOTION_DDOT":0},{"OBJECT_NAME":"AURA","OBJECT_ID":"2004-026A","EPOCH":"2026-04-26T20:04:36.935040","MEAN_MOTION":14.6124695,"ECCENTRICITY":0.0001697,"INCLINATION":98.3382,"RA_OF_ASC_NODE":72.8797,"ARG_OF_PERICENTER":84.8838,"MEAN_ANOMALY":275.2556,"EPHEMERIS_TYPE":0,"CLASSIFICATION_TYPE":"U","NORAD_CAT_ID":28376,"ELEMENT_SET_NO":999,"REV_AT_EPOCH":15871,"BSTAR":0.00017745,"MEAN_MOTION_DOT":8.27e-6,"MEAN_MOTION_DDOT":0},{"OBJECT_NAME":"IRS-P5 (CARTOSAT-1)","OBJECT_ID":"2005-017A","EPOCH":"2026-04-26T19:19:09.604128","MEAN_MOTION":14.90913242,"ECCENTRICITY":0.0001064,"INCLINATION":97.5349,"RA_OF_ASC_NODE":142.1959,"ARG_OF_PERICENTER":131.092,"MEAN_ANOMALY":229.0391,"EPHEMERIS_TYPE":0,"CLASSIFICATION_TYPE":"U","NORAD_CAT_ID":28649,"ELEMENT_SET_NO":999,"REV_AT_EPOCH":13616,"BSTAR":0.00014784,"MEAN_MOTION_DOT":1.406e-5,"MEAN_MOTION_DDOT":0},{"OBJECT_NAME":"SINAH 1","OBJECT_ID":"2005-043D","EPOCH":"2026-04-26T20:49:09.978240","MEAN_MOTION":14.64121163,"ECCENTRICITY":0.0015698,"INCLINATION":98.2781,"RA_OF_ASC_NODE":250.9098,"ARG_OF_PERICENTER":78.6075,"MEAN_ANOMALY":281.689,"EPHEMERIS_TYPE":0,"CLASSIFICATION_TYPE":"U","NORAD_CAT_ID":28893,"ELEMENT_SET_NO":999,"REV_AT_EPOCH":9301,"BSTAR":8.2677e-5,"MEAN_MOTION_DOT":3.86e-6,"MEAN_MOTION_DDOT":0},{"OBJECT_NAME":"RESURS-DK 1","OBJECT_ID":"2006-021A","EPOCH":"2026-04-26T17:38:52.748736","MEAN_MOTION":15.12992027,"ECCENTRICITY":0.000338,"INCLINATION":69.9311,"RA_OF_ASC_NODE":112.7174,"ARG_OF_PERICENTER":338.7068,"MEAN_ANOMALY":21.3957,"EPHEMERIS_TYPE":0,"CLASSIFICATION_TYPE":"U","NORAD_CAT_ID":29228,"ELEMENT_SET_NO":999,"REV_AT_EPOCH":9479,"BSTAR":0.00017672,"MEAN_MOTION_DOT":3.019e-5,"MEAN_MOTION_DDOT":0},{"OBJECT_NAME":"ARIRANG-2 (KOMPSAT-2)","OBJECT_ID":"2006-031A","EPOCH":"2026-04-26T20:38:00.705696","MEAN_MOTION":14.64627338,"ECCENTRICITY":0.0013171,"INCLINATION":97.8316,"RA_OF_ASC_NODE":303.7894,"ARG_OF_PERICENTER":233.6038,"MEAN_ANOMALY":238.4909,"EPHEMERIS_TYPE":0,"CLASSIFICATION_TYPE":"U","NORAD_CAT_ID":29268,"ELEMENT_SET_NO":999,"REV_AT_EPOCH":5396,"BSTAR":0.00014122,"MEAN_MOTION_DOT":7.06e-6,"MEAN_MOTION_DDOT":0},{"OBJECT_NAME":"LAPAN-TUBSAT","OBJECT_ID":"2007-001A","EPOCH":"2026-04-26T20:59:21.198624","MEAN_MOTION":14.85894956,"ECCENTRICITY":0.0012219,"INCLINATION":98.135,"RA_OF_ASC_NODE":114.9453,"ARG_OF_PERICENTER":359.7606,"MEAN_ANOMALY":0.36,"EPHEMERIS_TYPE":0,"CLASSIFICATION_TYPE":"U","NORAD_CAT_ID":29709,"ELEMENT_SET_NO":999,"REV_AT_EPOCH":4353,"BSTAR":7.8399e-5,"MEAN_MOTION_DOT":6.26e-6,"MEAN_MOTION_DDOT":0},{"OBJECT_NAME":"HAIYANG-1B","OBJECT_ID":"2007-010A","EPOCH":"2026-04-26T11:22:00.379200","MEAN_MOTION":14.31013794,"ECCENTRICITY":0.00135257,"INCLINATION":98.3476,"RA_OF_ASC_NODE":100.3319,"ARG_OF_PERICENTER":0.245,"MEAN_ANOMALY":359.8738,"EPHEMERIS_TYPE":0,"CLASSIFICATION_TYPE":"U","NORAD_CAT_ID":31113,"ELEMENT_SET_NO":999,"REV_AT_EPOCH":99323,"BSTAR":6.1571826e-5,"MEAN_MOTION_DOT":1.2e-6,"MEAN_MOTION_DDOT":0},{"OBJECT_NAME":"COSMO-SKYMED 1","OBJECT_ID":"2007-023A","EPOCH":"2026-04-26T14:22:53.484960","MEAN_MOTION":14.96844264,"ECCENTRICITY":0.0001428,"INCLINATION":97.8868,"RA_OF_ASC_NODE":308.0261,"ARG_OF_PERICENTER":101.6023,"MEAN_ANOMALY":258.5358,"EPHEMERIS_TYPE":0,"CLASSIFICATION_TYPE":"U","NORAD_CAT_ID":31598,"ELEMENT_SET_NO":999,"REV_AT_EPOCH":2207,"BSTAR":0.00030791546,"MEAN_MOTION_DOT":3.469e-5,"MEAN_MOTION_DDOT":0},{"OBJECT_NAME":"TERRASAR-X","OBJECT_ID":"2007-026A","EPOCH":"2026-04-26T11:38:34.858752","MEAN_MOTION":15.1914808,"ECCENTRICITY":0.00016144,"INCLINATION":97.4453,"RA_OF_ASC_NODE":124.9297,"ARG_OF_PERICENTER":76.6079,"MEAN_ANOMALY":283.5335,"EPHEMERIS_TYPE":0,"CLASSIFICATION_TYPE":"U","NORAD_CAT_ID":31698,"ELEMENT_SET_NO":999,"REV_AT_EPOCH":4537,"BSTAR":2.363821e-5,"MEAN_MOTION_DOT":4.29e-6,"MEAN_MOTION_DDOT":0}]
