SCD 1                   
1 22490U 93009B   26116.83981750  .00000443  00000+0  70288-4 0  9994
2 22490  24.9681 164.6093 0041765 314.9091 206.2060 14.46096983753672
TECHSAT 1B (GO-32)      
1 25397U 98043D   26116.85706312  .00000065  00000+0  48141-4 0  9990
2 25397  99.0062 108.3254 0001758  42.3066 317.8248 14.24417863444026
SCD 2                   
1 25504U 98060A   26116.86819582  .00000415  00000+0  64940-4 0  9998
2 25504  24.9965  28.6361 0016541 301.1167 113.4278 14.45505771452898
DLR-TUBSAT              
1 25757U 99029B   26116.83212433  .00000109  00000+0  38522-4 0  9990
2 25757  98.6692 110.6501 0014878 142.6460 217.5772 14.52412935425797
TERRA                   
1 25994U 99068A   26116.88251602  .00000379  00000+0  86257-4 0  9999
2 25994  97.9501 168.4524 0003157  54.7148 122.5190 14.61060954402111
MAROC-TUBSAT            
1 27004U 01056D   26116.73635329 -.00000011  00000+0  41098-4 0  9997
2 27004  99.8061 292.6294 0019038 274.9259 106.8928 13.70260234219140
AQUA                    
1 27424U 02022A   26116.85933236  .00000926  00000+0  19419-3 0  9993
2 27424  98.4244  85.1310 0002042  95.0121 295.2207 14.62075910275776
SHIYAN-1 (SY-1)         
1 28220U 04012A   26116.75061565  .00017576  00000+0  56334-3 0  9991
2 28220  97.8707 191.5316 0005847 187.8278 172.2872 15.32415145203213
AURA                    
1 28376U 04026A   26116.83653860  .00000827  00000+0  17745-3 0  9996
2 28376  98.3382  72.8797 0001697  84.8838 275.2556 14.61246950158715
IRS-P5 (CARTOSAT-1)     
1 28649U 05017A   26116.80497227  .00001406  00000+0  14784-3 0  9994
2 28649  97.5349 142.1959 0001064 131.0920 229.0391 14.90913242136164
SINAH 1                 
1 28893U 05043D   26116.86747660  .00000386  00000+0  82677-4 0  9992
2 28893  98.2781 250.9098 0015698  78.6075 281.6890 14.64121163 93018
RESURS-DK 1             
1 29228U 06021A   26116.73533274  .00003019  00000+0  17672-3 0  9990
2 29228  69.9311 112.7174 0003380 338.7068  21.3957 15.12992027 94790
ARIRANG-2 (KOMPSAT-2)   
1 29268U 06031A   26116.85973039  .00000706  00000+0  14122-3 0  9992
2 29268  97.8316 303.7894 0013171 233.6038 238.4909 14.64627338 53967
LAPAN-TUBSAT            
1 29709U 07001A   26116.87455091  .00000626  00000+0  78399-4 0  9993
2 29709  98.1350 114.9453 0012219 359.7606   0.3600 14.85894956 43536
HAIYANG-1B              
1 31113U 07010A   26116.47361550  .00000120  00000+0  61572-4 0  9991
2 31113  98.3476 100.3319 0013525   0.2450 359.8738 14.31013794993234
COSMO-SKYMED 1          
1 31598U 07023A   26116.59923015  .00003469  00000+0  30792-3 0  9993
2 31598  97.8868 308.0261 0001428 101.6023 258.5358 14.96844264 22077
TERRASAR-X              
1 31698U 07026A   26116.48512568  .00000429  00000+0  23638-4 0  9997
2 31698  97.4453 124.9297 0001614  76.6079 283.5335 15.19148080 45377
